[{"OBJECT_NAME":"MIMAN","OBJECT_ID":"2022-065G","EPOCH":"2026-03-09T22:22:30.876384","MEAN_MOTION":14.61711386,"ECCENTRICITY":0.00071444,"INCLINATION":98.2084,"RA_OF_ASC_NODE":212.0086,"ARG_OF_PERICENTER":345.5393,"MEAN_ANOMALY":14.5602,"EPHEMERIS_TYPE":0,"CLASSIFICATION_TYPE":"U","NORAD_CAT_ID":52900,"ELEMENT_SET_NO":999,"REV_AT_EPOCH":19594,"BSTAR":0.00019579871,"MEAN_MOTION_DOT":9.28e-6,"MEAN_MOTION_DDOT":0},{"OBJECT_NAME":"TRIAD 1","OBJECT_ID":"1972-069A","EPOCH":"2026-03-09T22:40:39.395424","MEAN_MOTION":14.52539963,"ECCENTRICITY":0.00502412,"INCLINATION":90.0166,"RA_OF_ASC_NODE":208.4929,"ARG_OF_PERICENTER":18.3842,"MEAN_ANOMALY":104.2518,"EPHEMERIS_TYPE":0,"CLASSIFICATION_TYPE":"U","NORAD_CAT_ID":6173,"ELEMENT_SET_NO":999,"REV_AT_EPOCH":81616,"BSTAR":0.00021176985,"MEAN_MOTION_DOT":8.92e-6,"MEAN_MOTION_DDOT":0}]
